[{"OBJECT_NAME":"STARLINK-32842","OBJECT_ID":"2025-018S","EPOCH":"2026-03-09T21:58:02.877312","MEAN_MOTION":15.30217658,"ECCENTRICITY":0.00019145,"INCLINATION":53.162,"RA_OF_ASC_NODE":308.4976,"ARG_OF_PERICENTER":157.6694,"MEAN_ANOMALY":202.4391,"EPHEMERIS_TYPE":0,"CLASSIFICATION_TYPE":"U","NORAD_CAT_ID":62822,"ELEMENT_SET_NO":999,"REV_AT_EPOCH":6321,"BSTAR":0.0011642878,"MEAN_MOTION_DOT":0.00034302,"MEAN_MOTION_DDOT":0},{"OBJECT_NAME":"ION SCV-017","OBJECT_ID":"2025-052W","EPOCH":"2026-03-09T17:11:44.577024","MEAN_MOTION":15.26881798,"ECCENTRICITY":0.0023746,"INCLINATION":97.4016,"RA_OF_ASC_NODE":324.7516,"ARG_OF_PERICENTER":44.9875,"MEAN_ANOMALY":315.3282,"EPHEMERIS_TYPE":0,"CLASSIFICATION_TYPE":"U","NORAD_CAT_ID":63230,"ELEMENT_SET_NO":999,"REV_AT_EPOCH":5485,"BSTAR":0.00024539061,"MEAN_MOTION_DOT":6.457e-5,"MEAN_MOTION_DDOT":0}]
